[
    {
        "Altitude(m)": 622205.8994438194,
        "Argument of Periapsis(deg)": 0.0,
        "Eccentricity": 0.0,
        "Inclination(deg)": 60.0,
        "Latitude(deg)": -52.16252360544757,
        "Longitude(deg)": -52.299519344708784,
        "Mean Anomaly(deg)": -114.5455,
        "RAAN(deg)": 180.0,
        "Satellite Name": "Test1 807",
        "Satellite Number": 807,
        "Semi-Major Axis(m)": 6980739.136638005,
        "Time(s)": 0
    },
    {
        "Altitude(m)": 622344.8055472956,
        "Argument of Periapsis(deg)": 0.00010418945913296404,
        "Eccentricity": 0.0,
        "Inclination(deg)": 60.0,
        "Latitude(deg)": -52.52010226809862,
        "Longitude(deg)": -51.51830430682975,
        "Mean Anomaly(deg)": -113.92539385453817,
        "RAAN(deg)": 179.99957995086024,
        "Satellite Name": "Test1 807",
        "Satellite Number": 807,
        "Semi-Major Axis(m)": 6980739.136638005,
        "Time(s)": 10
    }
]